1 20253U 89077A   26142.97069844 -.00000379  00000-0  00000-0 0  9995
2 20253  12.4287 351.3173 0006096  29.5716 334.8079  1.00267085260317
1 20776U 90079A   26143.73665382  .00000115  00000-0  00000+0 0  9999
2 20776  13.3474 349.9864 0002696  57.4051 132.5131  1.00275468130647
1 22787U 93056A   26143.80699294  .00000115  00000-0  00000+0 0  9998
2 22787  11.8867   3.6904 0008051   2.1562 194.7801  1.00277444118303
1 23467U 95003A   26143.47508146 -.00000032  00000-0  00000+0 0  9995
2 23467   9.6959  13.3145 0003194  40.2469 170.8804  1.00268468114707
1 23967U 96042A   26142.97128062 -.00000288  00000-0  00000-0 0  9997
2 23967  11.0931  17.2218 0005509 101.8573  71.3615  1.00222703109234
1 25544U 98067A   26143.80969095  .00007235  00000-0  13771-3 0  9991
2 25544  51.6325  60.7811 0007520  90.7634 269.4217 15.49334650567975
1 25967U 99063A   26143.01255031 -.00000198  00000-0  00000-0 0  9998
2 25967   9.8390  27.3494 0003120 319.5023 235.3694  1.00267415 97091
1 27168U 02001A   26143.80525961  .00000088  00000-0  00000+0 0  9994
2 27168  11.1517  22.0610 0099999   7.4093 160.8174  1.00267948 32718
1 27607U 02058C   26143.54202458  .00000579  00000-0  86207-4 0  9991
2 27607  64.5517 205.2337 0075602 266.9869  92.2584 14.82986811260804
1 28117U 03057A   26141.74872419 -.00000113  00000-0  00000+0 0  9995
2 28117   8.9406  33.9605 0002476  23.0420 167.3942  1.00272875 82187
1 28899U 05044A   26142.97425178 -.00000268  00000-0  00000-0 0  9994
2 28899   5.0640  43.7420 0002944  15.1732 315.8949  1.00270917 75267
1 30794U 07007B   26143.85233542 -.00000277  00000-0  00000+0 0  9991
2 30794   5.2401  74.0300 0004025 355.2096 214.2913  1.00273352 70453
1 32294U 07056B   26143.52113001  .00000133  00000-0  00000+0 0  9993
2 32294   5.1912  73.7921 0003915 332.5038  47.5676  1.00261903 67955
1 35943U 09054B   26143.85253292  .00000018  00000-0  00000+0 0  9992
2 35943   0.0639  90.1770 0003229 337.1037 184.0977  1.00272658 61068
1 36582U 10021B   26143.80395958  .00000082  00000-0  00000+0 0  9990
2 36582   0.0319 111.9453 0002737 321.8198 110.2189  1.00271231 58714
1 38098U 12011A   26143.84697501 -.00000065  00000-0  00000+0 0  9990
2 38098   0.0148  63.0471 0001713 358.1000 197.3350  1.00272379  6941
1 39034U 12075A   26143.81184630  .00000093  00000-0  00000+0 0  9992
2 39034   0.0672 354.9830 0003675  72.7379 158.7226  1.00273093 48912
1 39215U 13038A   26143.78239258  .00000126  00000-0  00000+0 0  9993
2 39215   2.9966   1.6064 0002033  51.5031 134.7566  1.00268780 43779
1 40296U 14069A   26143.25881803  .00000206  00000-0  00000-0 0  9990
2 40296  63.4438 217.7862 6657401 270.7241  19.5717  2.00590375 84739
1 40931U 15052B   25151.18580175  .00001241  00000-0  78118-4 0  9996
2 40931   6.0006  24.0987 0012733 338.8432  21.1169 14.78805930523159
1 43678U 18084H   26143.82781617  .00002471  00000-0  20206-3 0  9992
2 43678  98.1130 338.9872 0011605 253.9583 106.0361 15.00319089412561
1 43700U 18090A   26143.78239258  .00000138  00000-0  00000+0 0  9993
2 43700   0.0236  64.3890 0001520  27.7623  96.6893  1.00272273 27433
1 43803U 18099AX  26143.68703176  .00012344  00000-0  39227-3 0  9999
2 43803  97.4142 206.4508 0005245  15.7114 344.4290 15.32761474409871
1 44453U 19046A   26143.29331514 -.00000007  00000-0  00000+0 0  9991
2 44453  63.1164  53.9716 7069192 274.7994  14.7804  2.00604719 49848
1 44909U 19096E   26143.84705001  .00000009  00000-0 -79954-5 0  9991
2 44909  82.5227 355.8824 0217062 201.0384 158.1686 12.79748356299237
1 45254U 20015A   26138.55701514 -.00000090  00000-0  00000+0 0  9995
2 45254  65.5233 322.1165 6867226 278.4230  14.9617  2.00601994 45692
1 52145U 22030A   26143.04729086  .00000208  00000-0  00000-0 0  9996
2 52145  62.6768 143.4918 6777239 272.8759  17.6865  2.00615915 30527
1 57167U 23091B   26010.59363612  .08733485  25619-5  12458-2 0  9993
2 57167  97.4978  91.1570 0009532 282.8011  77.2220 16.34765267141469
1 59112U 24043Q   26143.85675080  .00028458  00000-0  39828-3 0  9996
2 59112  97.5512 292.8002 0005784 284.4381  75.6231 15.56761767124109
1 67291U 25313AV  26143.82016925  .00011785  00000-0  46639-3 0  9991
2 67291  97.3934 219.2963 0010402  85.0473 275.1953 15.25552610 22275
1 26635U 00080A   21013.46269075 0.00000000  00000-0  00000-0 0    09
2 26635   9.2857  29.8038 0014383 186.3086 173.6859  1.00273100    09
1 34810U 09020A   26118.58802400 0.00000000  00000-0  00000-0 0    05
2 34810   3.0809  80.0043 0003222 250.4250 109.5484  1.00270000    01
1 40614U 15022B   25359.93496764 0.00000000  00000-0  00000-0 0    00
2 40614   0.0160 108.2839 0003453 352.8976   7.0980  1.00270000    04
